STARLINK-36835
1 67863U 26034P   26092.83335647 -.03743043  00000+0 -13095+0 0  9995
2 67863  53.1605  92.2832 0001765  92.3312 120.3239 15.33437844  6005
